CCSDS_OMM_VERS = 2.0
CREATION_DATE  = 
ORIGINATOR     = 

OBJECT_NAME    = ISS OBJECT XX
OBJECT_ID      = 1998-067XX
CENTER_NAME    = EARTH
REF_FRAME      = TEME
TIME_SYSTEM    = UTC
MEAN_ELEMENT_THEORY = SGP/SGP4

EPOCH          = 2026-03-09T12:23:26.768256
MEAN_MOTION    = 15.75275776
ECCENTRICITY   = .00069202
INCLINATION    = 51.6211
RA_OF_ASC_NODE = 64.9631
ARG_OF_PERICENTER = 81.6711
MEAN_ANOMALY   = 278.5073

EPHEMERIS_TYPE = 0
CLASSIFICATION_TYPE = U
NORAD_CAT_ID   = 66911
ELEMENT_SET_NO = 999
REV_AT_EPOCH   = 1516
BSTAR          = .15443387E-2
MEAN_MOTION_DOT = .244098E-2
MEAN_MOTION_DDOT = 0

CCSDS_OMM_VERS = 2.0
CREATION_DATE  = 
ORIGINATOR     = 

OBJECT_NAME    = ISS OBJECT XY
OBJECT_ID      = 1998-067XY
CENTER_NAME    = EARTH
REF_FRAME      = TEME
TIME_SYSTEM    = UTC
MEAN_ELEMENT_THEORY = SGP/SGP4

EPOCH          = 2026-03-09T06:17:22.701984
MEAN_MOTION    = 15.63596680
ECCENTRICITY   = .0003192
INCLINATION    = 51.6273
RA_OF_ASC_NODE = 69.2991
ARG_OF_PERICENTER = 85.1778
MEAN_ANOMALY   = 274.9581

EPHEMERIS_TYPE = 0
CLASSIFICATION_TYPE = U
NORAD_CAT_ID   = 66912
ELEMENT_SET_NO = 999
REV_AT_EPOCH   = 1508
BSTAR          = .98678059E-3
MEAN_MOTION_DOT = .94078E-3
MEAN_MOTION_DDOT = 0

CCSDS_OMM_VERS = 2.0
CREATION_DATE  = 
ORIGINATOR     = 

OBJECT_NAME    = ISS OBJECT XZ
OBJECT_ID      = 1998-067XZ
CENTER_NAME    = EARTH
REF_FRAME      = TEME
TIME_SYSTEM    = UTC
MEAN_ELEMENT_THEORY = SGP/SGP4

EPOCH          = 2026-03-09T06:38:38.824800
MEAN_MOTION    = 15.51788436
ECCENTRICITY   = .00093919
INCLINATION    = 51.6309
RA_OF_ASC_NODE = 73.9008
ARG_OF_PERICENTER = 184.4289
MEAN_ANOMALY   = 175.6619

EPHEMERIS_TYPE = 0
CLASSIFICATION_TYPE = U
NORAD_CAT_ID   = 67683
ELEMENT_SET_NO = 999
REV_AT_EPOCH   = 472
BSTAR          = .68223388E-3
MEAN_MOTION_DOT = .41312E-3
MEAN_MOTION_DDOT = 0

CCSDS_OMM_VERS = 2.0
CREATION_DATE  = 
ORIGINATOR     = 

OBJECT_NAME    = GXIBA-1
OBJECT_ID      = 1998-067YA
CENTER_NAME    = EARTH
REF_FRAME      = TEME
TIME_SYSTEM    = UTC
MEAN_ELEMENT_THEORY = SGP/SGP4

EPOCH          = 2026-03-09T07:32:56.030496
MEAN_MOTION    = 15.54259962
ECCENTRICITY   = .00110131
INCLINATION    = 51.6300
RA_OF_ASC_NODE = 73.4032
ARG_OF_PERICENTER = 174.4815
MEAN_ANOMALY   = 185.6299

EPHEMERIS_TYPE = 0
CLASSIFICATION_TYPE = U
NORAD_CAT_ID   = 67684
ELEMENT_SET_NO = 999
REV_AT_EPOCH   = 473
BSTAR          = .11905476E-2
MEAN_MOTION_DOT = .79693E-3
MEAN_MOTION_DDOT = 0

CCSDS_OMM_VERS = 2.0
CREATION_DATE  = 
ORIGINATOR     = 

OBJECT_NAME    = CORAL
OBJECT_ID      = 1998-067YB
CENTER_NAME    = EARTH
REF_FRAME      = TEME
TIME_SYSTEM    = UTC
MEAN_ELEMENT_THEORY = SGP/SGP4

EPOCH          = 2026-03-09T09:37:49.701216
MEAN_MOTION    = 15.52162760
ECCENTRICITY   = .00113549
INCLINATION    = 51.6314
RA_OF_ASC_NODE = 73.2314
ARG_OF_PERICENTER = 181.5585
MEAN_ANOMALY   = 178.5371

EPHEMERIS_TYPE = 0
CLASSIFICATION_TYPE = U
NORAD_CAT_ID   = 67685
ELEMENT_SET_NO = 999
REV_AT_EPOCH   = 474
BSTAR          = .72424335E-3
MEAN_MOTION_DOT = .44538E-3
MEAN_MOTION_DDOT = 0

CCSDS_OMM_VERS = 2.0
CREATION_DATE  = 
ORIGINATOR     = 

OBJECT_NAME    = ISS OBJECT YC
OBJECT_ID      = 1998-067YC
CENTER_NAME    = EARTH
REF_FRAME      = TEME
TIME_SYSTEM    = UTC
MEAN_ELEMENT_THEORY = SGP/SGP4

EPOCH          = 2026-03-09T06:24:39.594816
MEAN_MOTION    = 15.52676056
ECCENTRICITY   = .00078962
INCLINATION    = 51.6312
RA_OF_ASC_NODE = 73.8379
ARG_OF_PERICENTER = 148.5060
MEAN_ANOMALY   = 211.6404

EPHEMERIS_TYPE = 0
CLASSIFICATION_TYPE = U
NORAD_CAT_ID   = 67686
ELEMENT_SET_NO = 999
REV_AT_EPOCH   = 472
BSTAR          = .82449301E-3
MEAN_MOTION_DOT = .517E-3
MEAN_MOTION_DDOT = 0

CCSDS_OMM_VERS = 2.0
CREATION_DATE  = 
ORIGINATOR     = 

OBJECT_NAME    = LEOPARD
OBJECT_ID      = 1998-067YD
CENTER_NAME    = EARTH
REF_FRAME      = TEME
TIME_SYSTEM    = UTC
MEAN_ELEMENT_THEORY = SGP/SGP4

EPOCH          = 2026-03-09T14:18:57.773664
MEAN_MOTION    = 15.51994489
ECCENTRICITY   = .00078269
INCLINATION    = 51.6320
RA_OF_ASC_NODE = 72.2870
ARG_OF_PERICENTER = 153.8657
MEAN_ANOMALY   = 206.2729

EPHEMERIS_TYPE = 0
CLASSIFICATION_TYPE = U
NORAD_CAT_ID   = 67687
ELEMENT_SET_NO = 999
REV_AT_EPOCH   = 469
BSTAR          = .66276154E-3
MEAN_MOTION_DOT = .40393E-3
MEAN_MOTION_DDOT = 0

CCSDS_OMM_VERS = 2.0
CREATION_DATE  = 
ORIGINATOR     = 

OBJECT_NAME    = ISS OBJECT YE
OBJECT_ID      = 1998-067YE
CENTER_NAME    = EARTH
REF_FRAME      = TEME
TIME_SYSTEM    = UTC
MEAN_ELEMENT_THEORY = SGP/SGP4

EPOCH          = 2026-03-09T11:06:14.568768
MEAN_MOTION    = 15.52452286
ECCENTRICITY   = .00078817
INCLINATION    = 51.6313
RA_OF_ASC_NODE = 72.8934
ARG_OF_PERICENTER = 149.9304
MEAN_ANOMALY   = 210.2140

EPHEMERIS_TYPE = 0
CLASSIFICATION_TYPE = U
NORAD_CAT_ID   = 67688
ELEMENT_SET_NO = 999
REV_AT_EPOCH   = 467
BSTAR          = .74597706E-3
MEAN_MOTION_DOT = .46321E-3
MEAN_MOTION_DDOT = 0

CCSDS_OMM_VERS = 2.0
CREATION_DATE  = 
ORIGINATOR     = 

OBJECT_NAME    = CREW DRAGON 12
OBJECT_ID      = 2026-031A
CENTER_NAME    = EARTH
REF_FRAME      = TEME
TIME_SYSTEM    = UTC
MEAN_ELEMENT_THEORY = SGP/SGP4

EPOCH          = 2026-03-09T10:46:14.833056
MEAN_MOTION    = 15.48542052
ECCENTRICITY   = .00080269
INCLINATION    = 51.6321
RA_OF_ASC_NODE = 73.5472
ARG_OF_PERICENTER = 173.5451
MEAN_ANOMALY   = 186.5642

EPHEMERIS_TYPE = 0
CLASSIFICATION_TYPE = U
NORAD_CAT_ID   = 67796
ELEMENT_SET_NO = 999
REV_AT_EPOCH   = 55618
BSTAR          = .15191697E-3
MEAN_MOTION_DOT = .7802E-4
MEAN_MOTION_DDOT = 0

